{"type": "FeatureCollection", "features": [ {"type": "Feature", "properties": {"norad_id": 30061, "name": "FENGYUN 1C DEB", "group": "fengyun-1c-debris", "lat": -48.388391945029284, "lon": -81.91716159902093, "alt_km": 815.8753622704035, "timestamp": "2025-12-25T16:53:14.936956+00:00", "meta": {"OBJECT_NAME": "FENGYUN 1C DEB", "OBJECT_ID": "1999-025PN", "EPOCH": "2025-12-25T05:23:54.363264", "MEAN_MOTION": 13.46524903, "ECCENTRICITY": 0.03733761, "INCLINATION": 101.8748, "RA_OF_ASC_NODE": 111.2182, "ARG_OF_PERICENTER": 222.3008, "MEAN_ANOMALY": 207.3646, "EPHEMERIS_TYPE": 0, "CLASSIFICATION_TYPE": "U", "NORAD_CAT_ID": 30061, "ELEMENT_SET_NO": 999, "REV_AT_EPOCH": 92267, "BSTAR": 0.0040825669, "MEAN_MOTION_DOT": 3.699e-05, "MEAN_MOTION_DDOT": 0}, "tle": {"line1": "1 30061U 99025PN  25359.22493476  .00003699  00000+0  40826-2 0  9994", "line2": "2 30061 101.8748 111.2182 0373376 222.3008 207.3646 13.46524903922674"}}, "geometry": {"type": "Point", "coordinates": [-81.91716159902093, -48.388391945029284]}}, {"type": "Feature", "properties": {"norad_id": 30062, "name": "FENGYUN 1C DEB", "group": "fengyun-1c-debris", "lat": 60.75756871484124, "lon": -155.4566264699012, "alt_km": 872.8320919611051, "timestamp": "2025-12-25T16:53:14.936966+00:00", "meta": {"OBJECT_NAME": "FENGYUN 1C DEB", "OBJECT_ID": "1999-025PP", "EPOCH": "2025-12-25T06:23:25.156896", "MEAN_MOTION": 14.07128605, "ECCENTRICITY": 0.00489953, "INCLINATION": 98.7805, "RA_OF_ASC_NODE": 8.093, "ARG_OF_PERICENTER": 13.2931, "MEAN_ANOMALY": 49.7217, "EPHEMERIS_TYPE": 0, "CLASSIFICATION_TYPE": "U", "NORAD_CAT_ID": 30062, "ELEMENT_SET_NO": 999, "REV_AT_EPOCH": 97084, "BSTAR": 0.00045280509, "MEAN_MOTION_DOT": 7.23e-06, "MEAN_MOTION_DDOT": 0}, "tle": {"line1": "1 30062U 99025PP  25359.26626339  .00000723  00000+0  45281-3 0  9991", "line2": "2 30062  98.7805   8.0930 0048995  13.2931  49.7217 14.07128605970846"}}, "geometry": {"type": "Point", "coordinates": [-155.4566264699012, 60.75756871484124]}}, {"type": "Feature", "properties": {"norad_id": 30063, "name": "FENGYUN 1C DEB", "group": "fengyun-1c-debris", "lat": 13.870127689701667, "lon": 160.0712500597075, "alt_km": 832.0368569629218, "timestamp": "2025-12-25T16:53:14.936976+00:00", "meta": {"OBJECT_NAME": "FENGYUN 1C DEB", "OBJECT_ID": "1999-025PQ", "EPOCH": "2025-12-24T21:42:04.021344", "MEAN_MOTION": 14.15615591, "ECCENTRICITY": 0.0033336, "INCLINATION": 98.5228, "RA_OF_ASC_NODE": 337.1849, "ARG_OF_PERICENTER": 100.2664, "MEAN_ANOMALY": 313.461, "EPHEMERIS_TYPE": 0, "CLASSIFICATION_TYPE": "U", "NORAD_CAT_ID": 30063, "ELEMENT_SET_NO": 999, "REV_AT_EPOCH": 97837, "BSTAR": 8.3751e-05, "MEAN_MOTION_DOT": 1.24e-06, "MEAN_MOTION_DDOT": 0}, "tle": {"line1": "1 30063U 99025PQ  25358.90421321  .00000124  00000+0  83751-4 0  9996", "line2": "2 30063  98.5228 337.1849 0033336 100.2664 313.4610 14.15615591978370"}}, "geometry": {"type": "Point", "coordinates": [160.0712500597075, 13.870127689701667]}}, {"type": "Feature", "properties": {"norad_id": 30064, "name": "FENGYUN 1C DEB", "group": "fengyun-1c-debris", "lat": -47.858747432990754, "lon": -179.33728604433935, "alt_km": 894.6338524716921, "timestamp": "2025-12-25T16:53:14.936986+00:00", "meta": {"OBJECT_NAME": "FENGYUN 1C DEB", "OBJECT_ID": "1999-025PR", "EPOCH": "2025-12-25T00:48:48.243744", "MEAN_MOTION": 14.14277571, "ECCENTRICITY": 0.00666656, "INCLINATION": 98.6614, "RA_OF_ASC_NODE": 9.7112, "ARG_OF_PERICENTER": 76.8099, "MEAN_ANOMALY": 343.2927, "EPHEMERIS_TYPE": 0, "CLASSIFICATION_TYPE": "U", "NORAD_CAT_ID": 30064, "ELEMENT_SET_NO": 999, "REV_AT_EPOCH": 97679, "BSTAR": 0.00016350029, "MEAN_MOTION_DOT": 2.77e-06, "MEAN_MOTION_DDOT": 0}, "tle": {"line1": "1 30064U 99025PR  25359.03389171  .00000277  00000+0  16350-3 0  9997", "line2": "2 30064  98.6614   9.7112 0066665  76.8099 343.2927 14.14277571976794"}}, "geometry": {"type": "Point", "coordinates": [-179.33728604433935, -47.858747432990754]}}, {"type": "Feature", "properties": {"norad_id": 30065, "name": "FENGYUN 1C DEB", "group": "fengyun-1c-debris", "lat": -11.062995222689493, "lon": -26.672792354621507, "alt_km": 848.4239664927791, "timestamp": "2025-12-25T16:53:14.936996+00:00", "meta": {"OBJECT_NAME": "FENGYUN 1C DEB", "OBJECT_ID": "1999-025PS", "EPOCH": "2025-12-24T21:53:41.318592", "MEAN_MOTION": 13.86920983, "ECCENTRICITY": 0.0131155, "INCLINATION": 98.6857, "RA_OF_ASC_NODE": 330.8792, "ARG_OF_PERICENTER": 358.4903, "MEAN_ANOMALY": 1.5842, "EPHEMERIS_TYPE": 0, "CLASSIFICATION_TYPE": "U", "NORAD_CAT_ID": 30065, "ELEMENT_SET_NO": 999, "REV_AT_EPOCH": 95840, "BSTAR": 0.00017479, "MEAN_MOTION_DOT": 1.78e-06, "MEAN_MOTION_DDOT": 0}, "tle": {"line1": "1 30065U 99025PS  25358.91228378  .00000178  00000+0  17479-3 0  9998", "line2": "2 30065  98.6857 330.8792 0131155 358.4903   1.5842 13.86920983958404"}}, "geometry": {"type": "Point", "coordinates": [-26.672792354621507, -11.062995222689493]}}, {"type": "Feature", "properties": {"norad_id": 30066, "name": "FENGYUN 1C DEB", "group": "fengyun-1c-debris", "lat": -76.79434409535041, "lon": 30.167808764630397, "alt_km": 787.6518799424439, "timestamp": "2025-12-25T16:53:14.937007+00:00", "meta": {"OBJECT_NAME": "FENGYUN 1C DEB", "OBJECT_ID": "1999-025PT", "EPOCH": "2025-12-24T22:54:41.459328", "MEAN_MOTION": 14.19117515, "ECCENTRICITY": 0.0116913, "INCLINATION": 98.6352, "RA_OF_ASC_NODE": 349.0769, "ARG_OF_PERICENTER": 226.3728, "MEAN_ANOMALY": 188.2291, "EPHEMERIS_TYPE": 0, "CLASSIFICATION_TYPE": "U", "NORAD_CAT_ID": 30066, "ELEMENT_SET_NO": 999, "REV_AT_EPOCH": 98010, "BSTAR": 0.00013734, "MEAN_MOTION_DOT": 2.64e-06, "MEAN_MOTION_DDOT": 0}, "tle": {"line1": "1 30066U 99025PT  25358.95464652  .00000264  00000+0  13734-3 0  9996", "line2": "2 30066  98.6352 349.0769 0116913 226.3728 188.2291 14.19117515980103"}}, "geometry": {"type": "Point", "coordinates": [30.167808764630397, -76.79434409535041]}}, {"type": "Feature", "properties": {"norad_id": 30067, "name": "FENGYUN 1C DEB", "group": "fengyun-1c-debris", "lat": -80.58365384631387, "lon": -2.315811160567151, "alt_km": 720.2974583784171, "timestamp": "2025-12-25T16:53:14.937017+00:00", "meta": {"OBJECT_NAME": "FENGYUN 1C DEB", "OBJECT_ID": "1999-025PU", "EPOCH": "2025-12-25T06:13:01.374816", "MEAN_MOTION": 14.4372609, "ECCENTRICITY": 0.01512193, "INCLINATION": 98.7656, "RA_OF_ASC_NODE": 245.7184, "ARG_OF_PERICENTER": 340.742, "MEAN_ANOMALY": 138.0124, "EPHEMERIS_TYPE": 0, "CLASSIFICATION_TYPE": "U", "NORAD_CAT_ID": 30067, "ELEMENT_SET_NO": 999, "REV_AT_EPOCH": 99379, "BSTAR": 0.00044635525, "MEAN_MOTION_DOT": 1.689e-05, "MEAN_MOTION_DDOT": 0}, "tle": {"line1": "1 30067U 99025PU  25359.25904369  .00001689  00000+0  44636-3 0  9992", "line2": "2 30067  98.7656 245.7184 0151219 340.7420 138.0124 14.43726090993791"}}, "geometry": {"type": "Point", "coordinates": [-2.315811160567151, -80.58365384631387]}}, {"type": "Feature", "properties": {"norad_id": 30068, "name": "FENGYUN 1C DEB", "group": "fengyun-1c-debris", "lat": 65.18516635845411, "lon": -173.38385418182378, "alt_km": 975.4595029312368, "timestamp": "2025-12-25T16:53:14.937027+00:00", "meta": {"OBJECT_NAME": "FENGYUN 1C DEB", "OBJECT_ID": "1999-025PV", "EPOCH": "2025-12-24T23:20:34.719648", "MEAN_MOTION": 14.12058038, "ECCENTRICITY": 0.01894069, "INCLINATION": 98.7376, "RA_OF_ASC_NODE": 346.4763, "ARG_OF_PERICENTER": 313.9937, "MEAN_ANOMALY": 44.5753, "EPHEMERIS_TYPE": 0, "CLASSIFICATION_TYPE": "U", "NORAD_CAT_ID": 30068, "ELEMENT_SET_NO": 999, "REV_AT_EPOCH": 97516, "BSTAR": 0.00019746356, "MEAN_MOTION_DOT": 3.84e-06, "MEAN_MOTION_DDOT": 0}, "tle": {"line1": "1 30068U 99025PV  25358.97262407  .00000384  00000+0  19746-3 0  9996", "line2": "2 30068  98.7376 346.4763 0189406 313.9937  44.5753 14.12058038975163"}}, "geometry": {"type": "Point", "coordinates": [-173.38385418182378, 65.18516635845411]}}, {"type": "Feature", "properties": {"norad_id": 30069, "name": "FENGYUN 1C DEB", "group": "fengyun-1c-debris", "lat": -55.46891294716162, "lon": 148.1554586835386, "alt_km": 910.4775035307821, "timestamp": "2025-12-25T16:53:14.937037+00:00", "meta": {"OBJECT_NAME": "FENGYUN 1C DEB", "OBJECT_ID": "1999-025PW", "EPOCH": "2025-12-24T22:58:25.044384", "MEAN_MOTION": 14.05235981, "ECCENTRICITY": 0.0049446, "INCLINATION": 98.8025, "RA_OF_ASC_NODE": 340.4452, "ARG_OF_PERICENTER": 19.3745, "MEAN_ANOMALY": 43.5013, "EPHEMERIS_TYPE": 0, "CLASSIFICATION_TYPE": "U", "NORAD_CAT_ID": 30069, "ELEMENT_SET_NO": 999, "REV_AT_EPOCH": 97018, "BSTAR": 0.00034538, "MEAN_MOTION_DOT": 5.22e-06, "MEAN_MOTION_DDOT": 0}, "tle": {"line1": "1 30069U 99025PW  25358.95723431  .00000522  00000+0  34538-3 0  9994", "line2": "2 30069  98.8025 340.4452 0049446  19.3745  43.5013 14.05235981970189"}}, "geometry": {"type": "Point", "coordinates": [148.1554586835386, -55.46891294716162]}}, {"type": "Feature", "properties": {"norad_id": 30070, "name": "FENGYUN 1C DEB", "group": "fengyun-1c-debris", "lat": -63.06130532609618, "lon": -138.31901879045606, "alt_km": 675.0389127390836, "timestamp": "2025-12-25T16:53:14.937047+00:00", "meta": {"OBJECT_NAME": "FENGYUN 1C DEB", "OBJECT_ID": "1999-025PX", "EPOCH": "2025-12-24T23:17:14.254368", "MEAN_MOTION": 14.10009416, "ECCENTRICITY": 0.03279509, "INCLINATION": 98.2845, "RA_OF_ASC_NODE": 57.6652, "ARG_OF_PERICENTER": 283.6965, "MEAN_ANOMALY": 202.3948, "EPHEMERIS_TYPE": 0, "CLASSIFICATION_TYPE": "U", "NORAD_CAT_ID": 30070, "ELEMENT_SET_NO": 999, "REV_AT_EPOCH": 96051, "BSTAR": 0.0016414943, "MEAN_MOTION_DOT": 4.738e-05, "MEAN_MOTION_DDOT": 0}, "tle": {"line1": "1 30070U 99025PX  25358.97030387  .00004738  00000+0  16415-2 0  9995", "line2": "2 30070  98.2845  57.6652 0327950 283.6965 202.3948 14.10009416960519"}}, "geometry": {"type": "Point", "coordinates": [-138.31901879045606, -63.06130532609618]}}]}